DUPLEX                  
1 66906U 98067XS  26076.93265565  .00024045  00000+0  33549-3 0  9990
2 66906  51.6300  28.2024 0002916 147.7236 212.3935 15.56752750 16410
ISS OBJECT XT           
1 66907U 98067XT  26077.55325632  .00148965  00000+0  10886-2 0  9998
2 66907  51.6257  20.3240 0005061 138.0856 222.0530 15.72233984 16577
ISS OBJECT XU           
1 66908U 98067XU  26077.55068543  .00147205  00000+0  10696-2 0  9999
2 66908  51.6252  20.3027 0005264 139.0270 221.1124 15.72373392 16579
SILVERSAT               
1 66909U 98067XV  26077.08947402  .00188918  00000+0  11693-2 0  9992
2 66909  51.6243  21.7188 0005600 137.5324 222.6110 15.75954146 16510
ISS OBJECT XW           
1 66910U 98067XW  26077.55267382  .00133331  00000+0  10166-2 0  9991
2 66910  51.6248  20.3118 0005639 140.4189 219.7221 15.71278342 16578
ISS OBJECT XX           
1 66911U 98067XX  26077.06683133  .00252305  00000+0  12796-2 0  9998
2 66911  51.6212  20.7915 0007243 141.9689 218.1825 15.80205228 16513
ISS OBJECT XY           
1 66912U 98067XY  26077.01299966  .00078591  00000+0  77195-3 0  9999
2 66912  51.6278  24.9814 0003628 139.1687 220.9580 15.65332059 16458
KNACKSAT-2              
1 67683U 98067XZ  26077.41913944  .00029697  00000+0  48008-3 0  9992
2 67683  51.6316  28.4495 0009689 216.6258 143.4071 15.52544245  6146
GXIBA-1                 
1 67684U 98067YA  26077.56848438  .00067301  00000+0  95322-3 0  9999
2 67684  51.6313  27.1981 0011848 206.6188 153.4196 15.55774462  6172
CORAL                   
1 67685U 98067YB  26077.15503373  .00035685  00000+0  56583-3 0  9997
2 67685  51.6324  29.6861 0011587 212.5477 147.4800 15.52965300  6104
ISS OBJECT YC           
1 67686U 98067YC  26077.08177038  .00042990  00000+0  66325-3 0  9997
2 67686  51.6325  29.9492 0008542 181.6034 178.4931 15.53669122  6092
LEOPARD                 
1 67687U 98067YD  26077.41571173  .00032262  00000+0  51713-3 0  9999
2 67687  51.6320  28.4288 0008226 186.2844 173.8044 15.52752222  6068
ISS OBJECT YE           
1 67688U 98067YE  26077.15016866  .00039840  00000+0  62263-3 0  9995
2 67688  51.6321  29.6558 0008334 182.6297 177.4651 15.53349847  6021
CREW DRAGON 12          
1 67796U 26031A   26077.35508505  .00007746  00000+0  15190-3 0  9992
2 67796  51.6340  29.5200 0006240 204.1942 155.8754 15.48355497557595
